ONEWEB-0238             
1 48784U 21045T   26083.28174627  .00000081  00000+0  18122-3 0  9994
2 48784  87.8923 276.1181 0001771  78.0145 282.1183 13.15548744233215
ONEWEB-0240             
1 48785U 21045U   26083.22694048  .00000079  00000+0  17501-3 0  9990
2 48785  87.8943 276.1339 0002042  89.6937 270.4427 13.15549580233234
ONEWEB-0246             
1 48786U 21045V   26083.06927388  .00000144  00000+0  34717-3 0  9990
2 48786  87.8936 276.1734 0001741  96.7792 263.3536 13.15549108233080
ONEWEB-0210             
1 48787U 21045W   26082.96786207  .00000087  00000+0  19623-3 0  9997
2 48787  87.8932 276.1902 0002182 116.6555 243.4800 13.15548619233116
ONEWEB-0214             
1 48788U 21045X   26082.97658304  .00000152  00000+0  36962-3 0  9993
2 48788  87.8934 276.1846 0001716 106.7064 253.4255 13.15548652233081
ONEWEB-0221             
1 48789U 21045Y   26083.28793155  .00000821  00000+0  21473-2 0  9996
2 48789  87.8937 276.1323 0001861  94.0191 266.1152 13.15553942233216
ONEWEB-0213             
1 48790U 21045Z   26083.27683596  .00000097  00000+0  22417-3 0  9999
2 48790  87.8933 276.1381 0001936  98.9563 261.1787 13.15549560233273
ONEWEB-0212             
1 48791U 21045AA  26083.25386946 -.00000103  00000+0 -30806-3 0  9998
2 48791  87.8934 276.1371 0001705  90.4399 269.6927 13.15549083233260
ONEWEB-0227             
1 48792U 21045AB  26083.25308005 -.00000060  00000+0 -19417-3 0  9996
2 48792  87.8933 276.1396 0001798  91.8357 268.2979 13.15548751233216
ONEWEB-0226             
1 48793U 21045AC  26083.24673523 -.00000068  00000+0 -21471-3 0  9997
2 48793  87.8925 276.1488 0001877 100.8545 259.2797 13.15549347233184
ONEWEB-0224             
1 48794U 21045AD  26083.28635321  .00000184  00000+0  45399-3 0  9998
2 48794  87.8927 276.1771 0002381  76.1028 284.0367 13.15550823233117
ONEWEB-0233             
1 48795U 21045AE  26083.06280669  .00000320  00000+0  81718-3 0  9993
2 48795  87.8925 276.2303 0002043  94.3447 265.7917 13.15546418233101
ONEWEB-0190             
1 48796U 21045AF  26083.27841914  .00000133  00000+0  31951-3 0  9999
2 48796  87.8921 276.1485 0002375 102.9130 257.2266 13.15550232233204
ONEWEB-0236             
1 48797U 21045AG  26083.06768430  .00000140  00000+0  33647-3 0  9990
2 48797  87.8923 276.2018 0001636  87.7744 272.3574 13.15549150233061
ONEWEB-0248             
1 48798U 21045AH  26083.08035744 -.00000013  00000+0 -68967-4 0  9993
2 48798  87.8938 276.1741 0002203  91.5761 268.5622 13.15546798233227
ONEWEB-0225             
1 48799U 21045AJ  26083.25465872 -.00000157  00000+0 -45158-3 0  9997
2 48799  87.8926 276.1539 0002275 100.7389 259.3998 13.15548941233257
