[{"OBJECT_NAME":"ONEWEB-0238","OBJECT_ID":"2021-045T","EPOCH":"2026-03-24T06:45:42.877728","MEAN_MOTION":13.15548744,"ECCENTRICITY":0.0001771,"INCLINATION":87.8923,"RA_OF_ASC_NODE":276.1181,"ARG_OF_PERICENTER":78.0145,"MEAN_ANOMALY":282.1183,"EPHEMERIS_TYPE":0,"CLASSIFICATION_TYPE":"U","NORAD_CAT_ID":48784,"ELEMENT_SET_NO":999,"REV_AT_EPOCH":23321,"BSTAR":0.00018122467,"MEAN_MOTION_DOT":8.1e-7,"MEAN_MOTION_DDOT":0},{"OBJECT_NAME":"ONEWEB-0240","OBJECT_ID":"2021-045U","EPOCH":"2026-03-24T05:26:47.657472","MEAN_MOTION":13.1554958,"ECCENTRICITY":0.00020421,"INCLINATION":87.8943,"RA_OF_ASC_NODE":276.1339,"ARG_OF_PERICENTER":89.6937,"MEAN_ANOMALY":270.4427,"EPHEMERIS_TYPE":0,"CLASSIFICATION_TYPE":"U","NORAD_CAT_ID":48785,"ELEMENT_SET_NO":999,"REV_AT_EPOCH":23323,"BSTAR":0.00017500975,"MEAN_MOTION_DOT":7.9e-7,"MEAN_MOTION_DDOT":0},{"OBJECT_NAME":"ONEWEB-0246","OBJECT_ID":"2021-045V","EPOCH":"2026-03-24T01:39:45.263232","MEAN_MOTION":13.15549108,"ECCENTRICITY":0.00017419,"INCLINATION":87.8936,"RA_OF_ASC_NODE":276.1734,"ARG_OF_PERICENTER":96.7792,"MEAN_ANOMALY":263.3536,"EPHEMERIS_TYPE":0,"CLASSIFICATION_TYPE":"U","NORAD_CAT_ID":48786,"ELEMENT_SET_NO":999,"REV_AT_EPOCH":23308,"BSTAR":0.00034717251,"MEAN_MOTION_DOT":1.44e-6,"MEAN_MOTION_DDOT":0},{"OBJECT_NAME":"ONEWEB-0210","OBJECT_ID":"2021-045W","EPOCH":"2026-03-23T23:13:43.282848","MEAN_MOTION":13.15548619,"ECCENTRICITY":0.00021829,"INCLINATION":87.8932,"RA_OF_ASC_NODE":276.1902,"ARG_OF_PERICENTER":116.6555,"MEAN_ANOMALY":243.48,"EPHEMERIS_TYPE":0,"CLASSIFICATION_TYPE":"U","NORAD_CAT_ID":48787,"ELEMENT_SET_NO":999,"REV_AT_EPOCH":23311,"BSTAR":0.00019623151,"MEAN_MOTION_DOT":8.7e-7,"MEAN_MOTION_DDOT":0},{"OBJECT_NAME":"ONEWEB-0214","OBJECT_ID":"2021-045X","EPOCH":"2026-03-23T23:26:16.774656","MEAN_MOTION":13.15548652,"ECCENTRICITY":0.00017165,"INCLINATION":87.8934,"RA_OF_ASC_NODE":276.1846,"ARG_OF_PERICENTER":106.7064,"MEAN_ANOMALY":253.4255,"EPHEMERIS_TYPE":0,"CLASSIFICATION_TYPE":"U","NORAD_CAT_ID":48788,"ELEMENT_SET_NO":999,"REV_AT_EPOCH":23308,"BSTAR":0.00036961724,"MEAN_MOTION_DOT":1.52e-6,"MEAN_MOTION_DDOT":0},{"OBJECT_NAME":"ONEWEB-0221","OBJECT_ID":"2021-045Y","EPOCH":"2026-03-24T06:54:37.285920","MEAN_MOTION":13.15553942,"ECCENTRICITY":0.0001861,"INCLINATION":87.8937,"RA_OF_ASC_NODE":276.1323,"ARG_OF_PERICENTER":94.0191,"MEAN_ANOMALY":266.1152,"EPHEMERIS_TYPE":0,"CLASSIFICATION_TYPE":"U","NORAD_CAT_ID":48789,"ELEMENT_SET_NO":999,"REV_AT_EPOCH":23321,"BSTAR":0.0021472552,"MEAN_MOTION_DOT":8.21e-6,"MEAN_MOTION_DDOT":0},{"OBJECT_NAME":"ONEWEB-0213","OBJECT_ID":"2021-045Z","EPOCH":"2026-03-24T06:38:38.626944","MEAN_MOTION":13.1554956,"ECCENTRICITY":0.00019362,"INCLINATION":87.8933,"RA_OF_ASC_NODE":276.1381,"ARG_OF_PERICENTER":98.9563,"MEAN_ANOMALY":261.1787,"EPHEMERIS_TYPE":0,"CLASSIFICATION_TYPE":"U","NORAD_CAT_ID":48790,"ELEMENT_SET_NO":999,"REV_AT_EPOCH":23327,"BSTAR":0.00022417227,"MEAN_MOTION_DOT":9.7e-7,"MEAN_MOTION_DDOT":0},{"OBJECT_NAME":"ONEWEB-0212","OBJECT_ID":"2021-045AA","EPOCH":"2026-03-24T06:05:34.321344","MEAN_MOTION":13.15549083,"ECCENTRICITY":0.00017056,"INCLINATION":87.8934,"RA_OF_ASC_NODE":276.1371,"ARG_OF_PERICENTER":90.4399,"MEAN_ANOMALY":269.6927,"EPHEMERIS_TYPE":0,"CLASSIFICATION_TYPE":"U","NORAD_CAT_ID":48791,"ELEMENT_SET_NO":999,"REV_AT_EPOCH":23326,"BSTAR":-0.00030806176,"MEAN_MOTION_DOT":-1.03e-6,"MEAN_MOTION_DDOT":0},{"OBJECT_NAME":"ONEWEB-0227","OBJECT_ID":"2021-045AB","EPOCH":"2026-03-24T06:04:26.116320","MEAN_MOTION":13.15548751,"ECCENTRICITY":0.00017986,"INCLINATION":87.8933,"RA_OF_ASC_NODE":276.1396,"ARG_OF_PERICENTER":91.8357,"MEAN_ANOMALY":268.2979,"EPHEMERIS_TYPE":0,"CLASSIFICATION_TYPE":"U","NORAD_CAT_ID":48792,"ELEMENT_SET_NO":999,"REV_AT_EPOCH":23321,"BSTAR":-0.00019416596,"MEAN_MOTION_DOT":-6.0e-7,"MEAN_MOTION_DDOT":0},{"OBJECT_NAME":"ONEWEB-0226","OBJECT_ID":"2021-045AC","EPOCH":"2026-03-24T05:55:17.923872","MEAN_MOTION":13.15549347,"ECCENTRICITY":0.00018772,"INCLINATION":87.8925,"RA_OF_ASC_NODE":276.1488,"ARG_OF_PERICENTER":100.8545,"MEAN_ANOMALY":259.2797,"EPHEMERIS_TYPE":0,"CLASSIFICATION_TYPE":"U","NORAD_CAT_ID":48793,"ELEMENT_SET_NO":999,"REV_AT_EPOCH":23318,"BSTAR":-0.00021471352,"MEAN_MOTION_DOT":-6.8e-7,"MEAN_MOTION_DDOT":0},{"OBJECT_NAME":"ONEWEB-0224","OBJECT_ID":"2021-045AD","EPOCH":"2026-03-24T06:52:20.917344","MEAN_MOTION":13.15550823,"ECCENTRICITY":0.0002381,"INCLINATION":87.8927,"RA_OF_ASC_NODE":276.1771,"ARG_OF_PERICENTER":76.1028,"MEAN_ANOMALY":284.0367,"EPHEMERIS_TYPE":0,"CLASSIFICATION_TYPE":"U","NORAD_CAT_ID":48794,"ELEMENT_SET_NO":999,"REV_AT_EPOCH":23311,"BSTAR":0.00045398565,"MEAN_MOTION_DOT":1.84e-6,"MEAN_MOTION_DDOT":0},{"OBJECT_NAME":"ONEWEB-0233","OBJECT_ID":"2021-045AE","EPOCH":"2026-03-24T01:30:26.498016","MEAN_MOTION":13.15546418,"ECCENTRICITY":0.00020432,"INCLINATION":87.8925,"RA_OF_ASC_NODE":276.2303,"ARG_OF_PERICENTER":94.3447,"MEAN_ANOMALY":265.7917,"EPHEMERIS_TYPE":0,"CLASSIFICATION_TYPE":"U","NORAD_CAT_ID":48795,"ELEMENT_SET_NO":999,"REV_AT_EPOCH":23310,"BSTAR":0.00081717869,"MEAN_MOTION_DOT":3.2e-6,"MEAN_MOTION_DDOT":0},{"OBJECT_NAME":"ONEWEB-0190","OBJECT_ID":"2021-045AF","EPOCH":"2026-03-24T06:40:55.413696","MEAN_MOTION":13.15550232,"ECCENTRICITY":0.00023757,"INCLINATION":87.8921,"RA_OF_ASC_NODE":276.1485,"ARG_OF_PERICENTER":102.913,"MEAN_ANOMALY":257.2266,"EPHEMERIS_TYPE":0,"CLASSIFICATION_TYPE":"U","NORAD_CAT_ID":48796,"ELEMENT_SET_NO":999,"REV_AT_EPOCH":23320,"BSTAR":0.00031951472,"MEAN_MOTION_DOT":1.33e-6,"MEAN_MOTION_DDOT":0},{"OBJECT_NAME":"ONEWEB-0236","OBJECT_ID":"2021-045AG","EPOCH":"2026-03-24T01:37:27.923520","MEAN_MOTION":13.1554915,"ECCENTRICITY":0.00016369,"INCLINATION":87.8923,"RA_OF_ASC_NODE":276.2018,"ARG_OF_PERICENTER":87.7744,"MEAN_ANOMALY":272.3574,"EPHEMERIS_TYPE":0,"CLASSIFICATION_TYPE":"U","NORAD_CAT_ID":48797,"ELEMENT_SET_NO":999,"REV_AT_EPOCH":23306,"BSTAR":0.00033647252,"MEAN_MOTION_DOT":1.4e-6,"MEAN_MOTION_DDOT":0},{"OBJECT_NAME":"ONEWEB-0248","OBJECT_ID":"2021-045AH","EPOCH":"2026-03-24T01:55:42.882816","MEAN_MOTION":13.15546798,"ECCENTRICITY":0.00022039,"INCLINATION":87.8938,"RA_OF_ASC_NODE":276.1741,"ARG_OF_PERICENTER":91.5761,"MEAN_ANOMALY":268.5622,"EPHEMERIS_TYPE":0,"CLASSIFICATION_TYPE":"U","NORAD_CAT_ID":48798,"ELEMENT_SET_NO":999,"REV_AT_EPOCH":23322,"BSTAR":-6.8967145e-5,"MEAN_MOTION_DOT":-1.3e-7,"MEAN_MOTION_DDOT":0},{"OBJECT_NAME":"ONEWEB-0225","OBJECT_ID":"2021-045AJ","EPOCH":"2026-03-24T06:06:42.513408","MEAN_MOTION":13.15548941,"ECCENTRICITY":0.00022752,"INCLINATION":87.8926,"RA_OF_ASC_NODE":276.1539,"ARG_OF_PERICENTER":100.7389,"MEAN_ANOMALY":259.3998,"EPHEMERIS_TYPE":0,"CLASSIFICATION_TYPE":"U","NORAD_CAT_ID":48799,"ELEMENT_SET_NO":999,"REV_AT_EPOCH":23325,"BSTAR":-0.00045157986,"MEAN_MOTION_DOT":-1.57e-6,"MEAN_MOTION_DDOT":0}]
